[{"OBJECT_NAME":"SITRO-AIS 20","OBJECT_ID":"2024-199Z","EPOCH":"2026-03-09T22:53:15.769536","MEAN_MOTION":14.97385198,"ECCENTRICITY":0.00069441,"INCLINATION":97.3309,"RA_OF_ASC_NODE":274.6556,"ARG_OF_PERICENTER":50.5148,"MEAN_ANOMALY":309.6689,"EPHEMERIS_TYPE":0,"CLASSIFICATION_TYPE":"U","NORAD_CAT_ID":61758,"ELEMENT_SET_NO":999,"REV_AT_EPOCH":12028,"BSTAR":0.00032349417,"MEAN_MOTION_DOT":3.708e-5,"MEAN_MOTION_DDOT":0},{"OBJECT_NAME":"STARLINK-32542","OBJECT_ID":"2024-225Q","EPOCH":"2026-03-09T16:27:06.818112","MEAN_MOTION":14.9834027,"ECCENTRICITY":0.00031654,"INCLINATION":70.0016,"RA_OF_ASC_NODE":164.495,"ARG_OF_PERICENTER":266.4456,"MEAN_ANOMALY":93.6341,"EPHEMERIS_TYPE":0,"CLASSIFICATION_TYPE":"U","NORAD_CAT_ID":62177,"ELEMENT_SET_NO":999,"REV_AT_EPOCH":6987,"BSTAR":0.00064552808,"MEAN_MOTION_DOT":7.62e-5,"MEAN_MOTION_DDOT":0}]
